OBJECT_NAME,OBJECT_ID,EPOCH,MEAN_MOTION,ECCENTRICITY,INCLINATION,RA_OF_ASC_NODE,ARG_OF_PERICENTER,MEAN_ANOMALY,EPHEMERIS_TYPE,CLASSIFICATION_TYPE,NORAD_CAT_ID,ELEMENT_SET_NO,REV_AT_EPOCH,BSTAR,MEAN_MOTION_DOT,MEAN_MOTION_DDOT
STARLINK-4596,2022-104AN,2026-06-09T08:01:26.989824,15.08841628,.00016726,53.1644,182.4219,67.3137,292.8031,0,U,53624,999,20958,-.2352673E-4,-.663E-5,0
STARLINK-4554,2022-104AQ,2026-06-09T18:53:13.306848,15.08835351,.00011917,53.1647,180.2679,90.0170,270.0958,0,U,53626,999,20966,.2371936E-4,.9E-6,0
STARLINK-4595,2022-104AR,2026-06-09T07:56:07.956960,15.08837970,.00012025,53.1658,182.3980,88.2012,271.9118,0,U,53627,999,20959,.30421422E-4,.196E-5,0
STARLINK-4600,2022-104AS,2026-06-09T09:10:19.688448,15.08833815,.00011894,53.1650,182.0100,102.0084,258.1041,0,U,53628,999,20960,.26296291E-4,.131E-5,0
STARLINK-4602,2022-104AT,2026-06-09T18:58:32.669760,15.08802804,.00008772,53.1646,180.2907,94.2178,265.8914,0,U,53629,999,20966,.36863294E-3,.5578E-4,0
STARLINK-4598,2022-104AU,2026-06-09T18:13:36.528384,15.08833968,.00011801,53.1645,170.8252,89.0982,271.0144,0,U,53630,999,20996,.3280669E-4,.234E-5,0
STARLINK-4599,2022-104AV,2026-06-09T18:37:18.963552,15.08817831,.00011916,53.1648,180.2010,91.4576,268.6552,0,U,53631,999,20966,.29567572E-3,.4418E-4,0
STARLINK-4606,2022-104AW,2026-06-09T18:01:37.740864,15.08805161,.00011296,53.1622,170.7733,93.3243,266.7878,0,U,53632,999,21012,.46065254E-3,.7044E-4,0
STARLINK-4593,2022-104AX,2026-06-09T18:06:56.415168,15.08840779,.00012576,53.1660,170.7937,70.4654,289.6473,0,U,53633,999,20979,-.24184911E-3,-.4135E-4,0
STARLINK-4592,2022-104AY,2026-06-09T17:51:01.243296,15.08804883,.00012333,53.1632,170.7284,92.5637,267.5495,0,U,53634,999,21012,.43904632E-3,.67E-4,0
STARLINK-4586,2022-104BA,2026-06-09T17:40:23.931840,15.08801167,.00013451,53.1631,170.6859,98.7804,261.3340,0,U,53636,999,21012,.51329425E-3,.7882E-4,0
STARLINK-4396,2022-104BB,2026-06-09T07:21:48.342528,15.08841070,.00013632,53.1680,172.9670,103.8408,256.2735,0,U,53637,999,21005,.1388755E-3,.1923E-4,0
STARLINK-4594,2022-104BC,2026-06-09T17:13:51.805344,15.08837490,.00009029,53.1628,170.5703,83.8386,276.2708,0,U,53638,999,21012,-.42340233E-4,-.962E-5,0
STARLINK-4422,2022-104BD,2026-06-09T22:00:01.999584,15.41714080,.00014726,53.2170,163.9659,70.7496,18.3784,0,U,53639,999,584,.40045208E-2,.175248E-2,0
STARLINK-4597,2022-104BE,2026-06-09T17:29:47.958720,15.08793959,.00011121,53.1625,170.6382,93.0650,267.0468,0,U,53640,999,21012,.46441399E-3,.7102E-4,0
STARLINK-4588,2022-104BF,2026-06-09T17:45:42.329664,15.08825435,.00010699,53.1623,170.6995,77.3669,282.7442,0,U,53641,999,21012,.58067954E-4,.636E-5,0
STARLINK-4622,2022-105A,2026-06-09T15:22:56.121312,15.05633207,.00031626,97.3827,40.0408,73.6119,286.5456,0,U,53648,999,20707,.47402756E-3,.6786E-4,0
STARLINK-4386,2022-105B,2026-06-09T22:00:01.999584,15.41267162,.00012083,97.6018,44.4013,80.7639,251.1716,0,U,53649,999,579,.13754519E-2,.57486E-3,0
STARLINK-4380,2022-105C,2026-06-09T15:26:54.816864,15.05671155,.00026015,97.3853,40.0264,67.5432,292.6070,0,U,53650,999,20706,.22198182E-3,.3148E-4,0
STARLINK-4388,2022-105D,2026-06-09T22:00:01.999584,15.51935099,.000132,97.6022,44.8705,73.8765,265.9880,0,U,53651,999,577,.88406978E-2,.569653E-2,0
STARLINK-4374,2022-105E,2026-06-09T15:50:52.999296,15.05629569,.0001548,97.3879,39.9984,83.6904,276.4500,0,U,53652,999,20706,.20851017E-4,.243E-5,0
STARLINK-4390,2022-105F,2026-06-09T22:00:01.999584,15.46858841,.00015015,97.6037,43.5106,77.1754,321.6684,0,U,53653,999,580,.1930938E-2,.98005E-3,0
STARLINK-4420,2022-105G,2026-06-09T15:36:49.813920,15.05643347,.0001805,97.3849,41.0637,102.0808,258.0622,0,U,53654,999,20713,.66547064E-4,.902E-5,0
STARLINK-4470,2022-105H,2026-06-09T22:00:01.999584,15.55971359,.00013996,97.6034,44.9306,77.7746,75.8330,0,U,53655,999,586,.23739498E-2,.168068E-2,0
STARLINK-4466,2022-105J,2026-06-09T05:40:45.659712,15.05659461,.000293,97.3858,39.6264,87.4777,272.6786,0,U,53656,999,20700,-.2054E-3,-.3021E-4,0
STARLINK-4452,2022-105L,2026-06-09T16:12:43.925760,15.05646015,.00023624,97.3835,41.1757,89.6129,270.5369,0,U,53658,999,20714,.87762558E-4,.1209E-4,0
STARLINK-4473,2022-105N,2026-06-09T13:27:17.957664,15.05654981,.00017668,97.3876,39.9433,113.7788,246.3624,0,U,53660,999,20705,-.55346931E-4,-.856E-5,0
STARLINK-4472,2022-105P,2026-06-09T15:46:51.996864,15.05637601,.00022654,97.3853,39.9713,83.1805,276.9680,0,U,53661,999,20706,.73046324E-4,.996E-5,0
STARLINK-4357,2022-105Q,2026-06-09T22:00:01.999584,15.50288603,.00020119,97.6024,44.4646,83.6767,157.9763,0,U,53662,999,581,.84868317E-2,.512153E-2,0
STARLINK-4457,2022-105R,2026-06-09T16:08:45.427200,15.05643645,.00020756,97.3845,41.1722,84.9100,275.2364,0,U,53663,999,20714,.75882683E-4,.1037E-4,0
STARLINK-4471,2022-105S,2026-06-09T20:03:26.860320,15.06068376,.00014035,97.3856,41.2416,136.7283,223.4055,0,U,53664,999,20716,.46651712E-2,.68672E-3,0
STARLINK-4334,2022-105T,2026-06-09T22:00:01.999584,15.46992254,.00017697,97.6031,44.7368,77.9449,55.5083,0,U,53665,999,576,.2840896E-2,.145791E-2,0
STARLINK-4406,2022-105V,2026-06-09T22:00:01.999584,15.31374001,.00016592,97.6034,44.3266,83.7094,190.8225,0,U,53667,999,585,.1634566E-2,.4972E-3,0
STARLINK-4458,2022-105W,2026-06-09T22:00:01.999584,15.52179281,.00014922,97.6039,44.8204,85.8999,6.5048,0,U,53668,999,579,.98529042E-2,.646786E-2,0
STARLINK-4464,2022-105X,2026-06-09T22:00:01.999584,15.45263384,.00016514,97.6024,43.4309,78.4973,253.8239,0,U,53669,999,570,.28217772E-2,.136333E-2,0
STARLINK-4459,2022-105Y,2026-06-09T15:52:47.780832,15.05646689,.00026838,97.3828,41.1520,87.0384,273.1151,0,U,53670,999,20714,.235846E-4,.283E-5,0
STARLINK-4440,2022-105Z,2026-06-09T15:34:53.314752,15.05653468,.00023867,97.3857,39.9540,80.7423,279.4074,0,U,53671,999,20706,-.20428506E-4,-.353E-5,0
STARLINK-4428,2022-105AA,2026-06-09T14:51:01.559520,15.05663036,.00024972,97.3840,39.9832,67.1123,293.0367,0,U,53672,999,20706,-.11727409E-3,-.175E-4,0
STARLINK-4456,2022-105AB,2026-06-09T22:00:01.999584,15.27446547,.00015258,97.6043,42.9300,78.2054,92.9016,0,U,53673,999,581,.13512362E-2,.36359E-3,0
STARLINK-4620,2022-105AC,2026-06-09T14:59:00.538656,15.05637125,.0002628,97.3825,39.9705,77.7867,282.3654,0,U,53674,999,20706,.21068278E-3,.2982E-4,0
STARLINK-4617,2022-105AD,2026-06-09T15:24:52.915968,15.05657779,.00030302,97.3856,41.1619,80.2604,279.8966,0,U,53675,999,20714,-.43839347E-4,-.69E-5,0
STARLINK-4621,2022-105AE,2026-06-09T16:06:47.831616,15.05652344,.00024738,97.3812,40.0499,86.1810,273.9700,0,U,53676,999,20707,-.15181713E-4,-.277E-5,0
STARLINK-4579,2022-105AF,2026-06-09T16:00:45.850176,15.05644455,.00018463,97.3839,41.1362,94.1658,265.9780,0,U,53677,999,20714,.6552337E-4,.888E-5,0
STARLINK-4632,2022-105AH,2026-06-09T05:38:43.884960,15.05666314,.0003138,97.3856,40.7895,78.5726,281.5853,0,U,53679,999,20708,-.29275E-3,-.4281E-4,0
STARLINK-4630,2022-105AJ,2026-06-09T15:56:46.526496,15.05650540,.0002676,97.3838,41.1157,89.7288,270.4246,0,U,53680,999,20714,.4532828E-4,.596E-5,0
STARLINK-4424,2022-105AK,2026-06-09T22:00:01.999584,15.55575252,.00014863,97.6031,44.1218,92.5329,119.7593,0,U,53681,999,587,.69073196E-2,.503024E-2,0
STARLINK-4438,2022-105AL,2026-06-09T14:48:58.929408,15.05659010,.00027626,97.3844,41.0197,69.2394,290.9129,0,U,53682,999,20713,-.85060379E-4,-.1285E-4,0
STARLINK-4625,2022-105AM,2026-06-09T15:54:49.945248,15.05658379,.00030954,97.3813,40.0537,73.0785,287.0782,0,U,53683,999,20707,-.70139725E-4,-.107E-4,0
STARLINK-4624,2022-105AN,2026-06-09T15:58:49.277568,15.05652897,.00033964,97.3823,40.0060,72.3887,287.7711,0,U,53684,999,20704,-.79117643E-4,-.1199E-4,0
STARLINK-4626,2022-105AP,2026-06-09T05:44:44.076192,15.05661705,.0003559,97.3825,39.5427,78.2260,281.9366,0,U,53685,999,20700,-.75486E-4,-.1147E-4,0
STARLINK-4467,2022-105AQ,2026-06-09T13:31:15.965472,15.05664512,.00005613,97.3926,39.8681,154.0226,206.1030,0,U,53686,999,20705,.43824193E-3,.6273E-4,0
STARLINK-4569,2022-105AR,2026-06-09T16:20:42.005472,15.05648255,.00032294,97.3813,41.0847,80.5447,279.6145,0,U,53687,999,20714,.90666272E-4,.1251E-4,0
STARLINK-4571,2022-105AS,2026-06-09T16:18:45.139104,15.05650071,.00027481,97.3815,40.0073,80.6190,279.5348,0,U,53688,999,20707,.79134325E-4,.1084E-4,0
STARLINK-4570,2022-105AU,2026-06-09T16:02:48.329952,15.05648146,.00027362,97.3815,40.0189,84.8029,275.3511,0,U,53690,999,20707,.81206162E-4,.1114E-4,0
STARLINK-4560,2022-105AV,2026-06-09T15:44:49.087680,15.05644555,.00040204,97.3829,41.0974,76.6558,283.5117,0,U,53691,999,20714,.59070645E-4,.795E-5,0
STARLINK-4572,2022-105AW,2026-06-09T16:25:20.580672,15.26312101,.00020252,97.6088,48.9796,91.3795,268.7675,0,U,53692,999,20756,.14115019E-2,.36707E-3,0
STARLINK-4566,2022-105AX,2026-06-09T16:16:43.558752,15.05647788,.00021474,97.3840,41.2175,76.5089,283.6377,0,U,53693,999,20715,.18773192E-4,.213E-5,0
YAOGAN-33 02,2022-106A,2026-06-09T22:11:45.215232,14.58722967,.00023078,98.1806,168.8965,143.5941,216.5416,0,U,53698,999,20066,.36128336E-4,.123E-5,0
STARLINK-4725,2022-107A,2026-06-09T09:30:11.092608,15.08832171,.00013836,53.1629,192.0124,52.0764,308.0352,0,U,53700,999,20870,.44041456E-4,.413E-5,0
STARLINK-4711,2022-107B,2026-06-09T18:57:12.325536,15.08799732,.00012096,53.1642,190.2067,106.2917,253.8208,0,U,53701,999,20876,.43906992E-3,.6699E-4,0
STARLINK-4724,2022-107C,2026-06-09T08:26:00.759552,15.08827371,.00014309,53.1637,177.4903,117.1696,242.9442,0,U,53702,999,20893,-.16851746E-4,-.556E-5,0
STARLINK-4731,2022-107D,2026-06-09T09:46:06.036384,15.08832797,.00012024,53.1636,192.0795,93.8026,266.3103,0,U,53703,999,20870,-.17226124E-4,-.562E-5,0
STARLINK-4714,2022-107E,2026-06-09T18:52:01.276896,15.08802308,.00011952,53.1629,190.8886,93.9555,266.1574,0,U,53704,999,20859,.38645037E-3,.5862E-4,0
STARLINK-4717,2022-107F,2026-06-09T18:46:42.377088,15.08826671,.00012621,53.1628,190.8669,82.2753,277.8382,0,U,53705,999,20875,.86447483E-4,.1088E-4,0
